ORBCOMM FM20            
1 25416U 98046D   25017.73875326  .00001811  00000+0  65764-3 0  9992
2 25416  44.9929 173.4727 0001698 201.2014 158.8764 14.36615384382623
ORBCOMM FM16            
1 25417U 98046E   25017.90252244  .00003310  00000+0  11283-2 0  9992
2 25417  44.9920 166.1252 0005156 242.2385 117.7940 14.38078397382614
ORBCOMM FM15            
1 25418U 98046F   25017.77355202  .00002380  00000+0  83006-3 0  9995
2 25418  44.9952 171.4494 0004667 241.5621 118.4757 14.37755665382598
ORBCOMM FM14            
1 25419U 98046G   25017.68757612  .00002562  00000+0  88451-3 0  9998
2 25419  44.9943 170.4967 0003877 228.4521 131.5995 14.38056754382547
ORBCOMM FM13            
1 25420U 98046H   25017.74832159  .00002441  00000+0  86320-3 0  9996
2 25420  44.9955 176.8083 0005702 229.2713 130.7640 14.36982997381599
ORBCOMM FM21            
1 25475U 98053A   25017.79406601  .00001596  00000+0  58369-3 0  9990
2 25475  45.0078 261.4200 0000556 144.7321 215.3564 14.36764547375617
ORBCOMM FM22            
1 25476U 98053B   25017.86219414  .00001889  00000+0  67033-3 0  9996
2 25476  45.0071 257.0698 0002400 171.6419 188.4470 14.37621376375631
ORBCOMM FM23            
1 25477U 98053C   25017.88038156  .00001690  00000+0  61376-3 0  9995
2 25477  45.0080 263.3124 0001475 165.6545 194.4345 14.36882744375770
